QIANFAN-9               
1 60387U 24140J   25272.99023848  .00000099  00000+0  13420-3 0  9996
2 60387  88.9770 306.9807 0017904  55.9322 304.3525 13.50972107 57374
QIANFAN-10              
1 60388U 24140K   25272.99435992  .00000081  00000+0  10636-3 0  9991
2 60388  88.9778 306.3205 0015714  35.7204 324.4996 13.50969201 57502
QIANFAN-11              
1 60389U 24140L   25272.95728711  .00000070  00000+0  89546-4 0  9997
2 60389  88.9705 306.9664 0015939  56.3917 303.8753 13.50969709 57153
QIANFAN-12              
1 60390U 24140M   25272.97781014  .00000099  00000+0  13470-3 0  9999
2 60390  88.9749 306.9754 0014944  64.0043 296.2645 13.50969854 57284
QIANFAN-13              
1 60391U 24140N   25273.02309184  .00000083  00000+0  10898-3 0  9995
2 60391  88.9761 307.0616 0014816  66.2848 293.9856 13.50969947 57318
QIANFAN-14              
1 60392U 24140P   25272.97363689  .00000092  00000+0  12299-3 0  9996
2 60392  88.9740 306.9801 0018489  65.3649 294.9426 13.50970703 57315
QIANFAN-15              
1 60393U 24140Q   25272.98189522  .00000100  00000+0  13683-3 0  9998
2 60393  88.9763 306.9182 0013993  54.4643 305.7811 13.50974295 57309
QIANFAN-16              
1 60394U 24140R   25272.96966236  .00000084  00000+0  11093-3 0  9996
2 60394  88.9766 307.0374 0016500  69.3079 290.9839 13.50969737 57213
